PALISADE                
1 44634U 19069A   26068.67233292 -.00000377  00000+0 -10925-2 0  9999
2 44634  87.8869 299.6164 0008751 344.4129  15.6728 13.11903827306063
ONEWEB-0301             
1 49090U 21075R   26068.82742404  .00000462  00000+0  12477-2 0  9994
2 49090  87.9002  10.3751 0001445  84.9200 275.2094 13.12443871221530
